EOSSAT-1                
1 55053U 23001AW  26068.73619225  .00007695  00000+0  24844-3 0  9992
2 55053  97.3357 130.2294 0011263 110.3168 249.9285 15.32339828176689
STARLINK-30426          
1 57848U 23141J   26068.88263382  .00001173  00000+0  51744-4 0  9991
2 57848  53.1598 283.2593 0001437 117.1697 242.9451 15.30189936140359
